GLOBALSTAR M065 [+]     
1 31571U 07020A   17345.39315942 -.00000092  00000-0  64169-4 0  9994
2 31571  51.9919 303.0756 0000295 344.4425 181.9221 12.62268339487138
